{
  "norad_id": 45432,
  "name": "ONEWEB-0027",
  "history": [
    {
      "epoch": "2026-03-28T21:20:49.898688Z",
      "apogee_km": 1195.2360546910277,
      "perigee_km": 1192.1697624016633,
      "latitude_deg": 6.0261375540551765e-05,
      "longitude_deg": -124.72204305196156,
      "height_km": 1196.0391940064799,
      "semi_major_axis_km": 7571.839908546345,
      "eccentricity": 0.00020248,
      "inclination_deg": 87.9187,
      "raan_deg": 21.7893,
      "arg_perigee_deg": 68.6156,
      "mean_anomaly_deg": 291.5192,
      "mean_motion_rev_day": 13.17651702
    },
    {
      "epoch": "2026-03-29T04:38:13.371648Z",
      "apogee_km": 1195.2355730629179,
      "perigee_km": 1192.1720062794166,
      "latitude_deg": -3.355502537927055e-05,
      "longitude_deg": 125.57056596174888,
      "height_km": 1196.0426968732681,
      "semi_major_axis_km": 7571.840789671167,
      "eccentricity": 0.0002023,
      "inclination_deg": 87.9187,
      "raan_deg": 21.7291,
      "arg_perigee_deg": 68.7003,
      "mean_anomaly_deg": 291.4344,
      "mean_motion_rev_day": 13.17651472
    },
    {
      "epoch": "2026-03-30T04:19:44.803488Z",
      "apogee_km": 1195.2047655027036,
      "perigee_km": 1192.2088897738604,
      "latitude_deg": -2.460774385152158e-05,
      "longitude_deg": 129.02080239284157,
      "height_km": 1196.0527461675183,
      "semi_major_axis_km": 7571.843827638281,
      "eccentricity": 0.00019783,
      "inclination_deg": 87.9189,
      "raan_deg": 21.5333,
      "arg_perigee_deg": 68.48,
      "mean_anomaly_deg": 291.6542,
      "mean_motion_rev_day": 13.17650679
    },
    {
      "epoch": "2026-03-30T07:58:26.463072Z",
      "apogee_km": 1195.205140592836,
      "perigee_km": 1192.2003317119415,
      "latitude_deg": -9.486306874999599e-06,
      "longitude_deg": 74.16743056766161,
      "height_km": 1196.0506971537857,
      "semi_major_axis_km": 7571.8397361523885,
      "eccentricity": 0.00019842,
      "inclination_deg": 87.9188,
      "raan_deg": 21.5032,
      "arg_perigee_deg": 68.6314,
      "mean_anomaly_deg": 291.5029,
      "mean_motion_rev_day": 13.17651747
    },
    {
      "epoch": "2026-03-30T20:43:52.617216Z",
      "apogee_km": 1195.1992102347094,
      "perigee_km": 1192.2110584548118,
      "latitude_deg": -7.127716932901373e-05,
      "longitude_deg": -117.82086891040825,
      "height_km": 1196.0526024150558,
      "semi_major_axis_km": 7571.84213434476,
      "eccentricity": 0.00019732,
      "inclination_deg": 87.9189,
      "raan_deg": 21.3978,
      "arg_perigee_deg": 68.4848,
      "mean_anomaly_deg": 291.6493,
      "mean_motion_rev_day": 13.17651121
    },
    {
      "epoch": "2026-03-31T18:36:03.112128Z",
      "apogee_km": 1195.2067149382701,
      "perigee_km": 1192.2037223143616,
      "latitude_deg": 7.03765510893629e-05,
      "longitude_deg": -86.94354315885367,
      "height_km": 1196.0424327176374,
      "semi_major_axis_km": 7571.842218626315,
      "eccentricity": 0.0001983,
      "inclination_deg": 87.9191,
      "raan_deg": 21.217,
      "arg_perigee_deg": 68.1768,
      "mean_anomaly_deg": 291.9575,
      "mean_motion_rev_day": 13.17651099
    },
    {
      "epoch": "2026-04-01T12:49:31.810944Z",
      "apogee_km": 1195.1996420545001,
      "perigee_km": 1192.2087647791495,
      "latitude_deg": 1.605302128669737e-05,
      "longitude_deg": -1.2120818582546007,
      "height_km": 1196.050147794301,
      "semi_major_axis_km": 7571.841203416824,
      "eccentricity": 0.0001975,
      "inclination_deg": 87.9191,
      "raan_deg": 21.0665,
      "arg_perigee_deg": 68.4432,
      "mean_anomaly_deg": 291.691,
      "mean_motion_rev_day": 13.17651364
    }
  ]
}